[Satellite]
VERSION=1.1
NAME=RISAT 1
NICKNAME=RISAT 1
TLE1=1 38248U 12017A   15055.66382043 -.00025421  00000-0 -16155-2 0  9990
TLE2=2 38248  97.5628  64.2003 0005107  66.5154  26.0951 15.08885104156037
